[{"OBJECT_NAME":"EAGLEEYE","OBJECT_ID":"2024-149AS","EPOCH":"2026-04-27T04:48:50.030784","MEAN_MOTION":15.63136485,"ECCENTRICITY":0.00032074,"INCLINATION":97.3728,"RA_OF_ASC_NODE":208.0553,"ARG_OF_PERICENTER":110.4994,"MEAN_ANOMALY":249.6609,"EPHEMERIS_TYPE":0,"CLASSIFICATION_TYPE":"U","NORAD_CAT_ID":60508,"ELEMENT_SET_NO":999,"REV_AT_EPOCH":9495,"BSTAR":0.0008451255,"MEAN_MOTION_DOT":0.0007751,"MEAN_MOTION_DDOT":0},{"OBJECT_NAME":"FLOCK 4BE-29","OBJECT_ID":"2024-149AT","EPOCH":"2026-04-27T11:25:06.927168","MEAN_MOTION":15.42467421,"ECCENTRICITY":0.0004282,"INCLINATION":97.3808,"RA_OF_ASC_NODE":202.6528,"ARG_OF_PERICENTER":118.5176,"MEAN_ANOMALY":241.6503,"EPHEMERIS_TYPE":0,"CLASSIFICATION_TYPE":"U","NORAD_CAT_ID":60509,"ELEMENT_SET_NO":999,"REV_AT_EPOCH":9459,"BSTAR":0.00045207,"MEAN_MOTION_DOT":0.00019515,"MEAN_MOTION_DDOT":0},{"OBJECT_NAME":"TRANSPORTER-11 OBJECT AU","OBJECT_ID":"2024-149AU","EPOCH":"2026-04-27T11:43:52.294080","MEAN_MOTION":15.38789263,"ECCENTRICITY":0.0005166,"INCLINATION":97.3732,"RA_OF_ASC_NODE":200.8614,"ARG_OF_PERICENTER":110.7939,"MEAN_ANOMALY":249.386,"EPHEMERIS_TYPE":0,"CLASSIFICATION_TYPE":"U","NORAD_CAT_ID":60510,"ELEMENT_SET_NO":999,"REV_AT_EPOCH":9451,"BSTAR":0.0004281,"MEAN_MOTION_DOT":0.00016356,"MEAN_MOTION_DDOT":0},{"OBJECT_NAME":"FLOCK 4BE-2","OBJECT_ID":"2024-149AV","EPOCH":"2026-04-27T12:16:49.876896","MEAN_MOTION":15.47713101,"ECCENTRICITY":0.0004728,"INCLINATION":97.3818,"RA_OF_ASC_NODE":203.573,"ARG_OF_PERICENTER":118.5503,"MEAN_ANOMALY":241.6224,"EPHEMERIS_TYPE":0,"CLASSIFICATION_TYPE":"U","NORAD_CAT_ID":60511,"ELEMENT_SET_NO":999,"REV_AT_EPOCH":9465,"BSTAR":0.0010047,"MEAN_MOTION_DOT":0.00052181,"MEAN_MOTION_DDOT":0},{"OBJECT_NAME":"FLOCK 4BE-13","OBJECT_ID":"2024-149AW","EPOCH":"2026-04-27T12:17:54.168864","MEAN_MOTION":15.40500328,"ECCENTRICITY":0.0005513,"INCLINATION":97.3721,"RA_OF_ASC_NODE":201.4524,"ARG_OF_PERICENTER":97.3447,"MEAN_ANOMALY":262.8426,"EPHEMERIS_TYPE":0,"CLASSIFICATION_TYPE":"U","NORAD_CAT_ID":60512,"ELEMENT_SET_NO":999,"REV_AT_EPOCH":9456,"BSTAR":0.00042483,"MEAN_MOTION_DOT":0.00017172,"MEAN_MOTION_DDOT":0},{"OBJECT_NAME":"FLOCK 4BE-27","OBJECT_ID":"2024-149AX","EPOCH":"2026-04-27T04:23:48.127488","MEAN_MOTION":15.33552583,"ECCENTRICITY":0.0005563,"INCLINATION":97.3829,"RA_OF_ASC_NODE":199.0454,"ARG_OF_PERICENTER":119.2651,"MEAN_ANOMALY":240.9148,"EPHEMERIS_TYPE":0,"CLASSIFICATION_TYPE":"U","NORAD_CAT_ID":60513,"ELEMENT_SET_NO":999,"REV_AT_EPOCH":9432,"BSTAR":0.00036931384,"MEAN_MOTION_DOT":0.0001191,"MEAN_MOTION_DDOT":0},{"OBJECT_NAME":"FLOCK 4BE-9","OBJECT_ID":"2024-149AY","EPOCH":"2026-04-27T05:06:48.081600","MEAN_MOTION":15.39250359,"ECCENTRICITY":0.0004479,"INCLINATION":97.3792,"RA_OF_ASC_NODE":201.0524,"ARG_OF_PERICENTER":120.7922,"MEAN_ANOMALY":239.3765,"EPHEMERIS_TYPE":0,"CLASSIFICATION_TYPE":"U","NORAD_CAT_ID":60514,"ELEMENT_SET_NO":999,"REV_AT_EPOCH":9447,"BSTAR":0.00051885044,"MEAN_MOTION_DOT":0.0002015,"MEAN_MOTION_DDOT":0},{"OBJECT_NAME":"FLOCK 4BE-6","OBJECT_ID":"2024-149BA","EPOCH":"2026-04-27T04:53:30.505056","MEAN_MOTION":15.38171463,"ECCENTRICITY":0.00052336,"INCLINATION":97.379,"RA_OF_ASC_NODE":200.4922,"ARG_OF_PERICENTER":119.116,"MEAN_ANOMALY":241.061,"EPHEMERIS_TYPE":0,"CLASSIFICATION_TYPE":"U","NORAD_CAT_ID":60516,"ELEMENT_SET_NO":999,"REV_AT_EPOCH":9443,"BSTAR":0.00044245184,"MEAN_MOTION_DOT":0.00016571,"MEAN_MOTION_DDOT":0},{"OBJECT_NAME":"FLOCK 4BE-14","OBJECT_ID":"2024-149BB","EPOCH":"2026-04-27T11:47:26.953152","MEAN_MOTION":15.39420141,"ECCENTRICITY":0.0006198,"INCLINATION":97.3696,"RA_OF_ASC_NODE":200.8791,"ARG_OF_PERICENTER":118.0872,"MEAN_ANOMALY":242.1001,"EPHEMERIS_TYPE":0,"CLASSIFICATION_TYPE":"U","NORAD_CAT_ID":60517,"ELEMENT_SET_NO":999,"REV_AT_EPOCH":9452,"BSTAR":0.00048627,"MEAN_MOTION_DOT":0.00018988,"MEAN_MOTION_DDOT":0},{"OBJECT_NAME":"FLOCK 4BE-1","OBJECT_ID":"2024-149BC","EPOCH":"2026-04-27T11:49:56.705088","MEAN_MOTION":15.40906131,"ECCENTRICITY":0.0005706,"INCLINATION":97.378,"RA_OF_ASC_NODE":201.9827,"ARG_OF_PERICENTER":118.4631,"MEAN_ANOMALY":241.719,"EPHEMERIS_TYPE":0,"CLASSIFICATION_TYPE":"U","NORAD_CAT_ID":60518,"ELEMENT_SET_NO":999,"REV_AT_EPOCH":9456,"BSTAR":0.00045834,"MEAN_MOTION_DOT":0.00018788,"MEAN_MOTION_DDOT":0},{"OBJECT_NAME":"FLOCK 4BE-28","OBJECT_ID":"2024-149BD","EPOCH":"2026-04-27T10:50:48.289920","MEAN_MOTION":15.43115465,"ECCENTRICITY":0.0005761,"INCLINATION":97.3748,"RA_OF_ASC_NODE":202.5118,"ARG_OF_PERICENTER":114.4361,"MEAN_ANOMALY":245.7488,"EPHEMERIS_TYPE":0,"CLASSIFICATION_TYPE":"U","NORAD_CAT_ID":60519,"ELEMENT_SET_NO":999,"REV_AT_EPOCH":9461,"BSTAR":0.00054601,"MEAN_MOTION_DOT":0.00024126,"MEAN_MOTION_DDOT":0},{"OBJECT_NAME":"IPERDRONE.0","OBJECT_ID":"2024-149BE","EPOCH":"2026-04-27T11:30:36.334080","MEAN_MOTION":15.60170884,"ECCENTRICITY":0.0003074,"INCLINATION":97.378,"RA_OF_ASC_NODE":208.4615,"ARG_OF_PERICENTER":98.9678,"MEAN_ANOMALY":261.1927,"EPHEMERIS_TYPE":0,"CLASSIFICATION_TYPE":"U","NORAD_CAT_ID":60520,"ELEMENT_SET_NO":999,"REV_AT_EPOCH":9499,"BSTAR":0.00081093,"MEAN_MOTION_DOT":0.00066254,"MEAN_MOTION_DDOT":0},{"OBJECT_NAME":"TRANSPORTER-11 OBJECT BF","OBJECT_ID":"2024-149BF","EPOCH":"2026-04-27T12:19:40.648224","MEAN_MOTION":15.69005197,"ECCENTRICITY":0.0002313,"INCLINATION":97.3786,"RA_OF_ASC_NODE":210.2379,"ARG_OF_PERICENTER":112.293,"MEAN_ANOMALY":247.8577,"EPHEMERIS_TYPE":0,"CLASSIFICATION_TYPE":"U","NORAD_CAT_ID":60521,"ELEMENT_SET_NO":999,"REV_AT_EPOCH":9510,"BSTAR":0.0010034,"MEAN_MOTION_DOT":0.00116883,"MEAN_MOTION_DDOT":0},{"OBJECT_NAME":"CONNECTA IOT-2","OBJECT_ID":"2024-149BG","EPOCH":"2026-04-27T11:35:32.229888","MEAN_MOTION":15.23525829,"ECCENTRICITY":0.0007802,"INCLINATION":97.3845,"RA_OF_ASC_NODE":196.4131,"ARG_OF_PERICENTER":134.5467,"MEAN_ANOMALY":225.6409,"EPHEMERIS_TYPE":0,"CLASSIFICATION_TYPE":"U","NORAD_CAT_ID":60522,"ELEMENT_SET_NO":999,"REV_AT_EPOCH":9417,"BSTAR":0.00025672,"MEAN_MOTION_DOT":6.066e-5,"MEAN_MOTION_DDOT":0},{"OBJECT_NAME":"PTD-R (TYVAK-0127)","OBJECT_ID":"2024-149BH","EPOCH":"2026-04-27T05:40:55.936128","MEAN_MOTION":15.82894554,"ECCENTRICITY":0.0003244,"INCLINATION":97.3747,"RA_OF_ASC_NODE":213.625,"ARG_OF_PERICENTER":155.9084,"MEAN_ANOMALY":204.2338,"EPHEMERIS_TYPE":0,"CLASSIFICATION_TYPE":"U","NORAD_CAT_ID":60523,"ELEMENT_SET_NO":999,"REV_AT_EPOCH":9532,"BSTAR":0.0008478,"MEAN_MOTION_DOT":0.00182398,"MEAN_MOTION_DDOT":0},{"OBJECT_NAME":"CONNECTA IOT-4","OBJECT_ID":"2024-149BJ","EPOCH":"2026-04-27T05:44:27.614400","MEAN_MOTION":15.40281725,"ECCENTRICITY":0.0006788,"INCLINATION":97.3801,"RA_OF_ASC_NODE":201.0822,"ARG_OF_PERICENTER":113.9156,"MEAN_ANOMALY":246.2802,"EPHEMERIS_TYPE":0,"CLASSIFICATION_TYPE":"U","NORAD_CAT_ID":60524,"ELEMENT_SET_NO":999,"REV_AT_EPOCH":9448,"BSTAR":0.00059672,"MEAN_MOTION_DOT":0.00024008,"MEAN_MOTION_DDOT":0}]
