EAGLEEYE                
1 60508U 24149AS  26117.20057906  .00077510  00000+0  84513-3 0  9998
2 60508  97.3728 208.0553 0003207 110.4994 249.6609 15.63136485 94955
FLOCK 4BE-29            
1 60509U 24149AT  26117.47577462  .00019515  00000+0  45207-3 0  9990
2 60509  97.3808 202.6528 0004282 118.5176 241.6503 15.42467421 94591
TRANSPORTER-11 OBJECT AU
1 60510U 24149AU  26117.48879970  .00016356  00000+0  42810-3 0  9999
2 60510  97.3732 200.8614 0005166 110.7939 249.3860 15.38789263 94517
FLOCK 4BE-2             
1 60511U 24149AV  26117.51168839  .00052181  00000+0  10047-2 0  9991
2 60511  97.3818 203.5730 0004728 118.5503 241.6224 15.47713101 94650
FLOCK 4BE-13            
1 60512U 24149AW  26117.51243251  .00017172  00000+0  42483-3 0  9995
2 60512  97.3721 201.4524 0005513  97.3447 262.8426 15.40500328 94563
FLOCK 4BE-27            
1 60513U 24149AX  26117.18319592  .00011910  00000+0  36931-3 0  9996
2 60513  97.3829 199.0454 0005563 119.2651 240.9148 15.33552583 94327
FLOCK 4BE-9             
1 60514U 24149AY  26117.21305650  .00020150  00000+0  51885-3 0  9992
2 60514  97.3792 201.0524 0004479 120.7922 239.3765 15.39250359 94477
FLOCK 4BE-6             
1 60516U 24149BA  26117.20382529  .00016571  00000+0  44245-3 0  9997
2 60516  97.3790 200.4922 0005233 119.1160 241.0610 15.38171463 94439
FLOCK 4BE-14            
1 60517U 24149BB  26117.49128418  .00018988  00000+0  48627-3 0  9996
2 60517  97.3696 200.8791 0006198 118.0872 242.1001 15.39420141 94529
FLOCK 4BE-1             
1 60518U 24149BC  26117.49301742  .00018788  00000+0  45834-3 0  9995
2 60518  97.3780 201.9827 0005706 118.4631 241.7190 15.40906131 94565
FLOCK 4BE-28            
1 60519U 24149BD  26117.45194780  .00024126  00000+0  54601-3 0  9999
2 60519  97.3748 202.5118 0005761 114.4361 245.7488 15.43115465 94612
IPERDRONE.0             
1 60520U 24149BE  26117.47958720  .00066254  00000+0  81093-3 0  9998
2 60520  97.3780 208.4615 0003074  98.9678 261.1927 15.60170884 94995
TRANSPORTER-11 OBJECT BF
1 60521U 24149BF  26117.51366491  .00116883  00000+0  10034-2 0  9992
2 60521  97.3786 210.2379 0002313 112.2930 247.8577 15.69005197 95105
CONNECTA IOT-2          
1 60522U 24149BG  26117.48301192  .00006066  00000+0  25672-3 0  9992
2 60522  97.3845 196.4131 0007802 134.5467 225.6409 15.23525829 94176
PTD-R (TYVAK-0127)      
1 60523U 24149BH  26117.23675852  .00182398  00000+0  84780-3 0  9991
2 60523  97.3747 213.6250 0003244 155.9084 204.2338 15.82894554 95321
CONNECTA IOT-4          
1 60524U 24149BJ  26117.23920850  .00024008  00000+0  59672-3 0  9998
2 60524  97.3801 201.0822 0006788 113.9156 246.2802 15.40281725 94481
